STARLINK-1335
1 25581C 20025BC  21325.11550697  .00003008  00000-0  20145-3 0  3258
2 25581  53.0537 282.7151 0001962  69.5402  43.4907 15.06406560    19
